[{"OBJECT_NAME":"STARLINK-4160","OBJECT_ID":"2022-076AW","EPOCH":"2026-03-09T08:10:38.791200","MEAN_MOTION":15.08838552,"ECCENTRICITY":0.00013735,"INCLINATION":53.2171,"RA_OF_ASC_NODE":85.8814,"ARG_OF_PERICENTER":83.5258,"MEAN_ANOMALY":276.5891,"EPHEMERIS_TYPE":0,"CLASSIFICATION_TYPE":"U","NORAD_CAT_ID":53030,"ELEMENT_SET_NO":999,"REV_AT_EPOCH":20293,"BSTAR":-0.00010985404,"MEAN_MOTION_DOT":-2.036e-5,"MEAN_MOTION_DDOT":0},{"OBJECT_NAME":"CZ-6A DEB","OBJECT_ID":"2024-140BZ","EPOCH":"2026-03-09T14:49:21.592992","MEAN_MOTION":14.79384468,"ECCENTRICITY":0.0146889,"INCLINATION":88.732,"RA_OF_ASC_NODE":260.453,"ARG_OF_PERICENTER":155.7611,"MEAN_ANOMALY":205.0618,"EPHEMERIS_TYPE":0,"CLASSIFICATION_TYPE":"U","NORAD_CAT_ID":60672,"ELEMENT_SET_NO":999,"REV_AT_EPOCH":8505,"BSTAR":0.0010732,"MEAN_MOTION_DOT":9.637e-5,"MEAN_MOTION_DDOT":0}]
